STARLINK-4718           
1 53773U 22111A   22266.25001157  .00026431  00000+0  19216-3 0  9998
2 53773  53.2158 206.7787 0000993 102.9587 347.5047 15.73198528  1854
STARLINK-4719           
1 53774U 22111B   22266.25001157  .00049344  00000+0  35396-3 0  9994
2 53774  53.2161 206.7777 0001186  99.7216 351.3167 15.73198305  1854
STARLINK-4722           
1 53775U 22111C   22266.58334491 -.00008574  00000+0 -56754-4 0  9995
2 53775  53.2159 205.1217 0001242 107.8347  73.9305 15.73192539  1903
STARLINK-4708           
1 53776U 22111D   22265.91667824  .00000842  00000+0  10408-4 0  9995
2 53776  53.2160 208.4239 0001351 111.6862 250.9712 15.73226247  1309
STARLINK-4664           
1 53777U 22111E   22266.58334491  .00049905  00000+0  35792-3 0  9996
2 53777  53.2158 205.1205 0001105 109.3603  73.6077 15.73197655  1908
STARLINK-4709           
1 53778U 22111F   22265.91667824 -.00036549  00000+0 -25667-3 0  9994
2 53778  53.2155 208.4228 0000954 116.0676 247.2461 15.73242206  1306
STARLINK-4706           
1 53779U 22111G   22266.25001157  .00027828  00000+0  20206-3 0  9996
2 53779  53.2162 206.7700 0001293 100.5750 354.0489 15.73196973  1855
STARLINK-4678           
1 53780U 22111H   22266.58334491  .00046448  00000+0  33355-3 0  9992
2 53780  53.2171 205.1220 0000978 113.1803  69.1884 15.73198756  1905
STARLINK-4462           
1 53781U 22111J   22265.91667824 -.00030493  00000+0 -21232-3 0  9994
2 53781  53.2174 208.4147 0001476 118.0887 249.3594 15.73342287  1307
STARLINK-4679           
1 53782U 22111K   22266.58334491 -.00034650  00000+0 -24274-3 0  9998
2 53782  53.2173 205.1177 0001272 117.4391  66.8596 15.73270991  1903
STARLINK-4536           
1 53783U 22111L   22266.58334491  .00029572  00000+0  21309-3 0  9990
2 53783  53.2172 205.1130 0001881 105.3510  81.4512 15.73341073  1908
STARLINK-4687           
1 53784U 22111M   22265.91667824  .00018709  00000+0  13710-3 0  9993
2 53784  53.2170 208.4151 0001376 114.6446 252.3087 15.73255317  1301
STARLINK-4638           
1 53785U 22111N   22266.25001157  .00132078  00000+0  61575-3 0  9991
2 53785  53.2040 206.2468 0006413 301.5804  45.9095 15.82428787  1855
STARLINK-4631           
1 53786U 22111P   22266.58334491  .00045039  00000+0  32283-3 0  9992
2 53786  53.2161 205.1134 0001139 126.9249  59.1732 15.73256093  1900
STARLINK-4743           
1 53787U 22111Q   22266.58334491 -.00011113  00000+0 -74540-4 0  9994
2 53787  53.2172 205.1075 0001170 137.4366  51.4879 15.73301803  1906
STARLINK-4744           
1 53788U 22111R   22266.25001157  .00138466  00000+0  64388-3 0  9996
2 53788  53.2042 206.2465 0006411 301.0904  46.5877 15.82462779  1855
STARLINK-4666           
1 53789U 22111S   22266.58334491  .00045424  00000+0  32641-3 0  9991
2 53789  53.2166 205.1056 0001224 108.0470  82.0785 15.73193525  1906
STARLINK-4734           
1 53790U 22111T   22266.58334491  .00047747  00000+0  34478-3 0  9993
2 53790  53.2168 205.1101 0000612  70.1026 118.0862 15.73057180  1909
STARLINK U              
1 53791U 22111U   22265.87314485  .00100039  00000+0  47008-3 0  9993
2 53791  53.2039 208.1353 0006568 300.5896  59.4480 15.82373961  1878
STARLINK-4739           
1 53792U 22111V   22266.58334491  .00011780  00000+0  88147-4 0  9996
2 53792  53.2169 205.1070 0001255 103.7112  85.8131 15.73222841  1908
STARLINK-4728           
1 53793U 22111W   22266.25001157  .00074846  00000+0  53354-3 0  9994
2 53793  53.2173 206.7547 0001358  98.8043   3.5585 15.73174441  1857
STARLINK-4730           
1 53794U 22111X   22266.58334491 -.00028820  00000+0 -20145-3 0  9996
2 53794  53.2163 205.1040 0001255 109.6930  81.0159 15.73220745  1903
STARLINK-4742           
1 53795U 22111Y   22265.91667824 -.00067650  00000+0 -48041-3 0  9991
2 53795  53.2168 208.4015 0001337 110.4203 263.5903 15.73251233  1305
STARLINK Z              
1 53796U 22111Z   22266.44121714  .00100821  00000+0  46904-3 0  9996
2 53796  53.2039 205.2808 0006294 308.4393  51.6065 15.82587169  1961
STARLINK-4723           
1 53797U 22111AA  22266.58334491 -.00030669  00000+0 -21472-3 0  9997
2 53797  53.2172 205.0999 0001099 111.6022  81.4955 15.73219355  1902
STARLINK-4712           
1 53798U 22111AB  22266.58334491 -.00024699  00000+0 -17192-3 0  9998
2 53798  53.2158 205.1008 0001039 101.6192  90.8634 15.73222346  1890
STARLINK-4710           
1 53799U 22111AC  22265.91667824  .00004601  00000+0  37144-4 0  9993
2 53799  53.2172 208.3966 0001297 101.4395 274.9642 15.73226235  1305
STARLINK-4720           
1 53800U 22111AD  22266.25001157 -.00031739  00000+0 -22225-3 0  9992
2 53800  53.2174 206.7498 0001098  94.1179  10.6196 15.73234395  1832
STARLINK-4715           
1 53801U 22111AE  22265.91667824 -.00005594  00000+0 -35420-4 0  9996
2 53801  53.2164 208.3940 0001302 101.8365 275.7631 15.73229413  1308
STARLINK-4726           
1 53802U 22111AF  22266.58334491 -.00032509  00000+0 -22792-3 0  9995
2 53802  53.2168 205.0961 0001254 105.0659  89.8291 15.73218611  1896
STARLINK-4727           
1 53803U 22111AG  22265.91667824 -.00024493  00000+0 -17048-3 0  9992
2 53803  53.2160 208.3909 0001042 106.3474 272.4313 15.73217153  1302
STARLINK-4729           
1 53804U 22111AH  22265.91667824 -.00030559  00000+0 -21402-3 0  9992
2 53804  53.2165 208.3922 0001103 101.8994 276.3109 15.73209867  1307
STARLINK-4763           
1 53805U 22111AJ  22266.58334491  .00048117  00000+0  34542-3 0  9994
2 53805  53.2159 205.0905 0001251  94.4770 102.8054 15.73191313  1891
STARLINK-4768           
1 53806U 22111AK  22266.58334491  .00032365  00000+0  23415-3 0  9990
2 53806  53.2174 205.0905 0001048  92.9950 104.8640 15.73197944  1895
BLUEWALKER-3            
1 53807U 22111AL  22266.16349671  .00000811  00000+0  54451-4 0  9997
2 53807  53.2034 212.1415 0011835 326.8435  33.1818 15.18334667  1859
FALCON 9 DEB            
1 53808U 22111AM  22266.18044442  .00231481  00000+0  94855-3 0  9998
2 53808  53.2037 206.4933 0005742 279.6815  80.3561 15.84871865  1927
FALCON 9 DEB            
1 53809U 22111AN  22266.05486291  .00143021  00000+0  62154-3 0  9996
2 53809  53.2007 207.1314 0006305 320.7588  39.2978 15.83886138  2954
FALCON 9 DEB            
1 53810U 22111AP  22266.24067356  .00158284  00000+0  66350-3 0  9995
2 53810  53.2017 206.1547 0009100 309.3215  50.7002 15.84565268  1932
FALCON 9 DEB            
1 53811U 22111AQ  22266.12808751  .00140616  00000+0  65144-3 0  9995
2 53811  53.1972 206.8805 0004870 269.8323  90.2143 15.82547368  1917
FALCON 9 DEB            
1 53812U 22111AR  22266.12681601  .00122096  00000+0  56696-3 0  9993
2 53812  53.1986 206.8724 0007454 278.0780  81.9398 15.82537033  1910
CHINASAT 1E (ZX 1E)     
1 53813U 22112A   22266.56229882 -.00000155  00000+0  00000+0 0  9998
2 53813   1.5004 280.3013 0002519 252.4747 113.4597  1.00272498   190
STRIX-1                 
1 53815U 22113A   22266.42733560  .00003326  00000+0  27307-3 0  9994
2 53815  97.6590 317.2414 0012176 276.8366  83.1464 14.99832720  1133
ELECTRON R/B            
1 53816U 22113B   22266.46287584  .02249086  22844-5  12238-2 0  9998
2 53816  97.6481 318.1550 0210306 199.7550 159.5559 15.86508458  1191
ELECTRON KICK STAGE R/B 
1 53817U 22113C   22266.22520555  .00003496  00000+0  28369-3 0  9999
2 53817  97.6578 317.0475 0012839 270.7862  89.1876 15.00238559  1109
CHUANGXIN 16B (CX-16B)  
1 53876U 22102B   22265.93738534  .00002874  00000+0  26560-3 0  9997
2 53876  28.9980 170.4162 0004866 207.5819 152.4518 14.91763786   473
2022-115A               
1 53877U 22115A   22266.58974591 -.00002497  00000+0 -81085-3 0  9995
2 53877  98.4973 265.2475 0014474 254.6225 105.3189 14.37974252   381
CZ-2D R/B               
1 53878U 22115B   22265.99167329  .00000050  00000+0  17355-4 0  9994
2 53878  98.5448 264.8128 0124692  36.8708 324.0989 14.67918970   308
SOYUZ-MS 22             
1 53879U 22116A   22264.70851653  .00009386  00000+0  17101-3 0  9993
2 53879  51.6422 218.3938 0002276 282.3985 138.6673 15.50204806360152
SL-4 R/B                
1 53880U 22116B   22266.19097638  .04165802  12240-4  60685-3 0  9994
2 53880  51.6534 210.1749 0010530  82.9804  55.5594 16.33631923   262
